[{"OBJECT_NAME":"STARLINK-31785","OBJECT_ID":"2024-118U","EPOCH":"2026-03-09T22:13:33.287808","MEAN_MOTION":15.30165683,"ECCENTRICITY":7.758e-5,"INCLINATION":53.1605,"RA_OF_ASC_NODE":25.5486,"ARG_OF_PERICENTER":114.8421,"MEAN_ANOMALY":245.266,"EPHEMERIS_TYPE":0,"CLASSIFICATION_TYPE":"U","NORAD_CAT_ID":60131,"ELEMENT_SET_NO":999,"REV_AT_EPOCH":9573,"BSTAR":-4.4626514e-5,"MEAN_MOTION_DOT":-1.679e-5,"MEAN_MOTION_DDOT":0},{"OBJECT_NAME":"NUSAT-48 (HENRIETTA LEAVITT)","OBJECT_ID":"2024-149AG","EPOCH":"2026-03-09T19:19:17.269536","MEAN_MOTION":15.29812597,"ECCENTRICITY":0.00027538,"INCLINATION":97.3923,"RA_OF_ASC_NODE":150.8264,"ARG_OF_PERICENTER":263.3026,"MEAN_ANOMALY":96.7901,"EPHEMERIS_TYPE":0,"CLASSIFICATION_TYPE":"U","NORAD_CAT_ID":60498,"ELEMENT_SET_NO":999,"REV_AT_EPOCH":8694,"BSTAR":0.00045211745,"MEAN_MOTION_DOT":0.00012988,"MEAN_MOTION_DDOT":0}]
